ONEWEB-0029             
1 45445U 20020X   23059.52561984  .00000068  00000+0  15559-3 0  9996
2 45445  87.8807 260.3859 0001408  81.0070 279.1217 13.11413665144766
ONEWEB-0029             
1 45445U 20020X   23059.83080678  .00000080  00000+0  19125-3 0  9993
2 45445  87.8808 260.3250 0001410  81.0093 279.1194 13.11413964144801
ONEWEB-0029             
1 45445U 20020X   23060.05969751 -.00000017  00000+0 -83841-4 0  9996
2 45445  87.8807 260.2793 0001403  81.2985 278.8302 13.11413707144841
ONEWEB-0029             
1 45445U 20020X   23060.82266576 -.00000187  00000+0 -56408-3 0  9992
2 45445  87.8808 260.1271 0001387  82.0801 278.0485 13.11413771144934
ONEWEB-0029             
1 45445U 20020X   23061.81452474 -.00000335  00000+0 -98201-3 0  9998
2 45445  87.8807 259.9293 0001369  82.5935 277.5348 13.11413515145069
ONEWEB-0029             
1 45445U 20020X   23061.81452474 -.00000335  00000+0 -98201-3 0  9998
2 45445  87.8807 259.9293 0001369  82.5935 277.5348 13.11413515145070
ONEWEB-0029             
1 45445U 20020X   23062.50119716 -.00000428  00000+0 -12431-2 0  9997
2 45445  87.8806 259.7924 0001364  83.2593 276.8690 13.11412754145156
ONEWEB-0029             
1 45445U 20020X   23062.95897905 -.00000502  00000+0 -14515-2 0  9997
2 45445  87.8807 259.7010 0001354  83.7612 276.3671 13.11412372145227
